STARLINK-35723          
1 66211U 25244F   25321.83337963 -.00086004  00000+0 -15538-2 0  9991
2 66211  53.1601  33.5779 0001034  71.0697  13.6347 15.49337893  4253
STARLINK-35710          
1 66212U 25244G   25321.83337963 -.00079857  00000+0 -14412-2 0  9990
2 66212  53.1601  33.5698 0001203  79.3145   9.2255 15.49334047  4337
STARLINK-34204          
1 66213U 25244H   25321.83337963 -.00088617  00000+0 -16017-2 0  9998
2 66213  53.1603  33.5742 0000976  68.5709  18.0518 15.49338837  4524
STARLINK-35714          
1 66214U 25244J   25321.83337963 -.00094718  00000+0 -17135-2 0  9990
2 66214  53.1603  33.5539 0001197  73.0683  23.1311 15.49344969  4203
STARLINK-35712          
1 66215U 25244K   25321.83337963 -.00081302  00000+0 -14676-2 0  9993
2 66215  53.1603  33.5458 0000905  68.7690  31.2701 15.49335897  4202
STARLINK-35709          
1 66216U 25244L   25321.83337963 -.00081466  00000+0 -14706-2 0  9999
2 66216  53.1602  33.5662 0000858  61.6051  28.8472 15.49336968  4206
STARLINK-35700          
1 66217U 25244M   25321.83337963 -.00075598  00000+0 -13632-2 0  9996
2 66217  53.1602  33.5623 0000879  66.8297  25.5378 15.49334422  4208
STARLINK-35722          
1 66218U 25244N   25321.83337963 -.00083404  00000+0 -15061-2 0  9990
2 66218  53.1602  33.5582 0000982  64.4442  29.8438 15.49336982  4201
STARLINK-35737          
1 66219U 25244P   25321.83337963 -.00086345  00000+0 -15600-2 0  9997
2 66219  53.1602  33.5503 0000952  66.2246  31.8977 15.49337931  4367
STARLINK-35677          
1 66220U 25244Q   25321.83337963 -.00096786  00000+0 -17517-2 0  9998
2 66220  53.1603  33.5426 0000930  65.8762  36.0814 15.49342372  4203
STARLINK-35704          
1 66221U 25244R   25321.83337963 -.00086536  00000+0 -15634-2 0  9999
2 66221  53.1604  33.5380 0001049  57.4881  46.3818 15.49339422  4205
STARLINK-35666          
1 66222U 25244S   25321.83337963 -.00219739  00000+0 -40439-2 0  9994
2 66222  53.1602  33.5300 0001246  73.5359  34.2848 15.49384697  4319
