CCSDS_OMM_VERS = 2.0
CREATION_DATE  = 
ORIGINATOR     = 

OBJECT_NAME    = STARLINK-35723
OBJECT_ID      = 2025-244F
CENTER_NAME    = EARTH
REF_FRAME      = TEME
TIME_SYSTEM    = UTC
MEAN_ELEMENT_THEORY = SGP/SGP4

EPOCH          = 2025-11-17T20:00:04.000032
MEAN_MOTION    = 15.49337893
ECCENTRICITY   = .0001034
INCLINATION    = 53.1601
RA_OF_ASC_NODE = 33.5779
ARG_OF_PERICENTER = 71.0697
MEAN_ANOMALY   = 13.6347

EPHEMERIS_TYPE = 0
CLASSIFICATION_TYPE = U
NORAD_CAT_ID   = 66211
ELEMENT_SET_NO = 999
REV_AT_EPOCH   = 425
BSTAR          = -.15538E-2
MEAN_MOTION_DOT = -.86004E-3
MEAN_MOTION_DDOT = 0

CCSDS_OMM_VERS = 2.0
CREATION_DATE  = 
ORIGINATOR     = 

OBJECT_NAME    = STARLINK-35710
OBJECT_ID      = 2025-244G
CENTER_NAME    = EARTH
REF_FRAME      = TEME
TIME_SYSTEM    = UTC
MEAN_ELEMENT_THEORY = SGP/SGP4

EPOCH          = 2025-11-17T20:00:04.000032
MEAN_MOTION    = 15.49334047
ECCENTRICITY   = .0001203
INCLINATION    = 53.1601
RA_OF_ASC_NODE = 33.5698
ARG_OF_PERICENTER = 79.3145
MEAN_ANOMALY   = 9.2255

EPHEMERIS_TYPE = 0
CLASSIFICATION_TYPE = U
NORAD_CAT_ID   = 66212
ELEMENT_SET_NO = 999
REV_AT_EPOCH   = 433
BSTAR          = -.14412E-2
MEAN_MOTION_DOT = -.79857E-3
MEAN_MOTION_DDOT = 0

CCSDS_OMM_VERS = 2.0
CREATION_DATE  = 
ORIGINATOR     = 

OBJECT_NAME    = STARLINK-34204
OBJECT_ID      = 2025-244H
CENTER_NAME    = EARTH
REF_FRAME      = TEME
TIME_SYSTEM    = UTC
MEAN_ELEMENT_THEORY = SGP/SGP4

EPOCH          = 2025-11-17T20:00:04.000032
MEAN_MOTION    = 15.49338837
ECCENTRICITY   = .0000976
INCLINATION    = 53.1603
RA_OF_ASC_NODE = 33.5742
ARG_OF_PERICENTER = 68.5709
MEAN_ANOMALY   = 18.0518

EPHEMERIS_TYPE = 0
CLASSIFICATION_TYPE = U
NORAD_CAT_ID   = 66213
ELEMENT_SET_NO = 999
REV_AT_EPOCH   = 452
BSTAR          = -.16017E-2
MEAN_MOTION_DOT = -.88617E-3
MEAN_MOTION_DDOT = 0

CCSDS_OMM_VERS = 2.0
CREATION_DATE  = 
ORIGINATOR     = 

OBJECT_NAME    = STARLINK-35714
OBJECT_ID      = 2025-244J
CENTER_NAME    = EARTH
REF_FRAME      = TEME
TIME_SYSTEM    = UTC
MEAN_ELEMENT_THEORY = SGP/SGP4

EPOCH          = 2025-11-17T20:00:04.000032
MEAN_MOTION    = 15.49344969
ECCENTRICITY   = .0001197
INCLINATION    = 53.1603
RA_OF_ASC_NODE = 33.5539
ARG_OF_PERICENTER = 73.0683
MEAN_ANOMALY   = 23.1311

EPHEMERIS_TYPE = 0
CLASSIFICATION_TYPE = U
NORAD_CAT_ID   = 66214
ELEMENT_SET_NO = 999
REV_AT_EPOCH   = 420
BSTAR          = -.17135E-2
MEAN_MOTION_DOT = -.94718E-3
MEAN_MOTION_DDOT = 0

CCSDS_OMM_VERS = 2.0
CREATION_DATE  = 
ORIGINATOR     = 

OBJECT_NAME    = STARLINK-35712
OBJECT_ID      = 2025-244K
CENTER_NAME    = EARTH
REF_FRAME      = TEME
TIME_SYSTEM    = UTC
MEAN_ELEMENT_THEORY = SGP/SGP4

EPOCH          = 2025-11-17T20:00:04.000032
MEAN_MOTION    = 15.49335897
ECCENTRICITY   = .0000905
INCLINATION    = 53.1603
RA_OF_ASC_NODE = 33.5458
ARG_OF_PERICENTER = 68.7690
MEAN_ANOMALY   = 31.2701

EPHEMERIS_TYPE = 0
CLASSIFICATION_TYPE = U
NORAD_CAT_ID   = 66215
ELEMENT_SET_NO = 999
REV_AT_EPOCH   = 420
BSTAR          = -.14676E-2
MEAN_MOTION_DOT = -.81302E-3
MEAN_MOTION_DDOT = 0

CCSDS_OMM_VERS = 2.0
CREATION_DATE  = 
ORIGINATOR     = 

OBJECT_NAME    = STARLINK-35709
OBJECT_ID      = 2025-244L
CENTER_NAME    = EARTH
REF_FRAME      = TEME
TIME_SYSTEM    = UTC
MEAN_ELEMENT_THEORY = SGP/SGP4

EPOCH          = 2025-11-17T20:00:04.000032
MEAN_MOTION    = 15.49336968
ECCENTRICITY   = .0000858
INCLINATION    = 53.1602
RA_OF_ASC_NODE = 33.5662
ARG_OF_PERICENTER = 61.6051
MEAN_ANOMALY   = 28.8472

EPHEMERIS_TYPE = 0
CLASSIFICATION_TYPE = U
NORAD_CAT_ID   = 66216
ELEMENT_SET_NO = 999
REV_AT_EPOCH   = 420
BSTAR          = -.14706E-2
MEAN_MOTION_DOT = -.81466E-3
MEAN_MOTION_DDOT = 0

CCSDS_OMM_VERS = 2.0
CREATION_DATE  = 
ORIGINATOR     = 

OBJECT_NAME    = STARLINK-35700
OBJECT_ID      = 2025-244M
CENTER_NAME    = EARTH
REF_FRAME      = TEME
TIME_SYSTEM    = UTC
MEAN_ELEMENT_THEORY = SGP/SGP4

EPOCH          = 2025-11-17T20:00:04.000032
MEAN_MOTION    = 15.49334422
ECCENTRICITY   = .0000879
INCLINATION    = 53.1602
RA_OF_ASC_NODE = 33.5623
ARG_OF_PERICENTER = 66.8297
MEAN_ANOMALY   = 25.5378

EPHEMERIS_TYPE = 0
CLASSIFICATION_TYPE = U
NORAD_CAT_ID   = 66217
ELEMENT_SET_NO = 999
REV_AT_EPOCH   = 420
BSTAR          = -.13632E-2
MEAN_MOTION_DOT = -.75598E-3
MEAN_MOTION_DDOT = 0

CCSDS_OMM_VERS = 2.0
CREATION_DATE  = 
ORIGINATOR     = 

OBJECT_NAME    = STARLINK-35722
OBJECT_ID      = 2025-244N
CENTER_NAME    = EARTH
REF_FRAME      = TEME
TIME_SYSTEM    = UTC
MEAN_ELEMENT_THEORY = SGP/SGP4

EPOCH          = 2025-11-17T20:00:04.000032
MEAN_MOTION    = 15.49336982
ECCENTRICITY   = .0000982
INCLINATION    = 53.1602
RA_OF_ASC_NODE = 33.5582
ARG_OF_PERICENTER = 64.4442
MEAN_ANOMALY   = 29.8438

EPHEMERIS_TYPE = 0
CLASSIFICATION_TYPE = U
NORAD_CAT_ID   = 66218
ELEMENT_SET_NO = 999
REV_AT_EPOCH   = 420
BSTAR          = -.15061E-2
MEAN_MOTION_DOT = -.83404E-3
MEAN_MOTION_DDOT = 0

CCSDS_OMM_VERS = 2.0
CREATION_DATE  = 
ORIGINATOR     = 

OBJECT_NAME    = STARLINK-35737
OBJECT_ID      = 2025-244P
CENTER_NAME    = EARTH
REF_FRAME      = TEME
TIME_SYSTEM    = UTC
MEAN_ELEMENT_THEORY = SGP/SGP4

EPOCH          = 2025-11-17T20:00:04.000032
MEAN_MOTION    = 15.49337931
ECCENTRICITY   = .0000952
INCLINATION    = 53.1602
RA_OF_ASC_NODE = 33.5503
ARG_OF_PERICENTER = 66.2246
MEAN_ANOMALY   = 31.8977

EPHEMERIS_TYPE = 0
CLASSIFICATION_TYPE = U
NORAD_CAT_ID   = 66219
ELEMENT_SET_NO = 999
REV_AT_EPOCH   = 436
BSTAR          = -.156E-2
MEAN_MOTION_DOT = -.86345E-3
MEAN_MOTION_DDOT = 0

CCSDS_OMM_VERS = 2.0
CREATION_DATE  = 
ORIGINATOR     = 

OBJECT_NAME    = STARLINK-35677
OBJECT_ID      = 2025-244Q
CENTER_NAME    = EARTH
REF_FRAME      = TEME
TIME_SYSTEM    = UTC
MEAN_ELEMENT_THEORY = SGP/SGP4

EPOCH          = 2025-11-17T20:00:04.000032
MEAN_MOTION    = 15.49342372
ECCENTRICITY   = .000093
INCLINATION    = 53.1603
RA_OF_ASC_NODE = 33.5426
ARG_OF_PERICENTER = 65.8762
MEAN_ANOMALY   = 36.0814

EPHEMERIS_TYPE = 0
CLASSIFICATION_TYPE = U
NORAD_CAT_ID   = 66220
ELEMENT_SET_NO = 999
REV_AT_EPOCH   = 420
BSTAR          = -.17517E-2
MEAN_MOTION_DOT = -.96786E-3
MEAN_MOTION_DDOT = 0

CCSDS_OMM_VERS = 2.0
CREATION_DATE  = 
ORIGINATOR     = 

OBJECT_NAME    = STARLINK-35704
OBJECT_ID      = 2025-244R
CENTER_NAME    = EARTH
REF_FRAME      = TEME
TIME_SYSTEM    = UTC
MEAN_ELEMENT_THEORY = SGP/SGP4

EPOCH          = 2025-11-17T20:00:04.000032
MEAN_MOTION    = 15.49339422
ECCENTRICITY   = .0001049
INCLINATION    = 53.1604
RA_OF_ASC_NODE = 33.5380
ARG_OF_PERICENTER = 57.4881
MEAN_ANOMALY   = 46.3818

EPHEMERIS_TYPE = 0
CLASSIFICATION_TYPE = U
NORAD_CAT_ID   = 66221
ELEMENT_SET_NO = 999
REV_AT_EPOCH   = 420
BSTAR          = -.15634E-2
MEAN_MOTION_DOT = -.86536E-3
MEAN_MOTION_DDOT = 0

CCSDS_OMM_VERS = 2.0
CREATION_DATE  = 
ORIGINATOR     = 

OBJECT_NAME    = STARLINK-35666
OBJECT_ID      = 2025-244S
CENTER_NAME    = EARTH
REF_FRAME      = TEME
TIME_SYSTEM    = UTC
MEAN_ELEMENT_THEORY = SGP/SGP4

EPOCH          = 2025-11-17T20:00:04.000032
MEAN_MOTION    = 15.49384697
ECCENTRICITY   = .0001246
INCLINATION    = 53.1602
RA_OF_ASC_NODE = 33.5300
ARG_OF_PERICENTER = 73.5359
MEAN_ANOMALY   = 34.2848

EPHEMERIS_TYPE = 0
CLASSIFICATION_TYPE = U
NORAD_CAT_ID   = 66222
ELEMENT_SET_NO = 999
REV_AT_EPOCH   = 431
BSTAR          = -.40439E-2
MEAN_MOTION_DOT = -.219739E-2
MEAN_MOTION_DDOT = 0

